NORAD_CAT_ID,OBJECT_NAME,OBJECT_TYPE,EPOCH,MEAN_MOTION,ECCENTRICITY,INCLINATION,RA_OF_ASC_NODE,ARG_OF_PERICENTER,MEAN_ANOMALY,BSTAR,MEAN_MOTION_DOT,MEAN_MOTION_DDOT,TLE_LINE0,TLE_LINE1,TLE_LINE2,SEMIMAJOR_AXIS,PERIOD,APOGEE,PERIGEE,DECAYED
50840.0,STARLINK-3295,PAYLOAD,2022-12-17 15:59:25,15.088432999999998,0.0002497,53.2185,67.4706,33.5444,326.5705,8.6645e-05,1.091e-05,0.0,0 STARLINK-3295,1 50840U 22001AP  22351.66626878  .00001091  00000-0  86645-4 0  9998,2 50840  53.2185  67.4706 0002497  33.5444 326.5705 15.08843300 52410,6917.87,95.437,541.4630000000002,538.008,0.0
50840.0,STARLINK-3295,PAYLOAD,2022-12-17 22:20:58,15.08834716,0.0002618,53.2192,66.281,33.797,326.3189,5.5701e-05,5.98e-06,0.0,0 STARLINK-3295,1 50840U 22001AP  22351.93123654  .00000598  00000-0  55701-4 0  9992,2 50840  53.2192  66.2810 0002618  33.7970 326.3189 15.08834716 53744,6917.897,95.438,541.573,537.95,0.0
50840.0,STARLINK-3295,PAYLOAD,2022-12-18 11:04:04,15.08831979,0.0002699,53.2189,63.9028,25.6738,334.4388,-4.6919e-06,-3.63e-06,0.0,0 STARLINK-3295,1 50840U 22001AP  22352.46116168 -.00000363  00000-0 -46919-5 0  9997,2 50840  53.2189  63.9028 0002699  25.6738 334.4388 15.08831979 52531,6917.905,95.438,541.637,537.903,0.0
50840.0,STARLINK-3295,PAYLOAD,2022-12-18 17:25:36,15.088379000000002,0.0002505,53.2188,62.7116,32.322,327.7925,6.5904e-05,7.61e-06,0.0,0 STARLINK-3295,1 50840U 22001AP  22352.72611668  .00000761  00000-0  65904-4 0  9995,2 50840  53.2188  62.7116 0002505  32.3220 327.7925 15.08837900 52578,6917.887,95.438,541.485,538.019,0.0
50840.0,STARLINK-3295,PAYLOAD,2022-12-18 22:11:46,15.08833983,0.0002624,53.219,61.8202,30.6868,329.4277,4.476e-05,4.24e-06,0.0,0 STARLINK-3295,1 50840U 22001AP  22352.92484086  .00000424  00000-0  44760-4 0  9992,2 50840  53.2190  61.8202 0002624  30.6868 329.4277 15.08833983 52608,6917.899,95.438,541.5790000000002,537.9490000000002,0.0
50840.0,STARLINK-3295,PAYLOAD,2022-12-19 15:40:59,15.08850742,0.000271,53.2179,58.5491,25.6884,334.4242,0.0001019,1.334e-05,0.0,0 STARLINK-3295,1 50840U 22001AP  22353.65346855  .00001334  00000-0  10190-3 0  9994,2 50840  53.2179  58.5491 0002710  25.6884 334.4242 15.08850742 52718,6917.848000000001,95.437,541.587,537.8380000000002,0.0
50840.0,STARLINK-3295,PAYLOAD,2022-12-19 22:02:32,15.08841441,0.0002322,53.2182,57.3591,32.6406,327.473,0.00014254,1.981e-05,0.0,0 STARLINK-3295,1 50840U 22001AP  22353.91843323  .00001981  00000-0  14254-3 0  9998,2 50840  53.2182  57.3591 0002322  32.6406 327.4730 15.08841441 54045,6917.876,95.437,541.347,538.135,0.0
50840.0,STARLINK-3295,PAYLOAD,2022-12-20 10:45:37,15.08847009,0.0002636,53.2188,54.9817,25.4005,334.7116,0.00018925,2.725e-05,0.0,0 STARLINK-3295,1 50840U 22001AP  22354.44834650  .00002725  00000-0  18925-3 0  9996,2 50840  53.2188  54.9817 0002636  25.4005 334.7116 15.08847009 52838,6917.859,95.437,541.548,537.9,0.0
50840.0,STARLINK-3295,PAYLOAD,2022-12-20 13:56:23,15.08848748,0.0002662,53.2189,54.3876,24.0845,336.0272,0.00013471,1.857e-05,0.0,0 STARLINK-3295,1 50840U 22001AP  22354.58082657  .00001857  00000-0  13471-3 0  9999,2 50840  53.2189  54.3876 0002662  24.0845 336.0272 15.08848748 54149,6917.854,95.437,541.56,537.877,0.0
50840.0,STARLINK-3295,PAYLOAD,2022-12-21 10:36:26,15.08820664,0.0002626,53.2183,50.5203,25.9188,334.1935,-8.512700000000001e-05,-1.642e-05,0.0,0 STARLINK-3295,1 50840U 22001AP  22355.44197239 -.00001642  00000-0 -85127-4 0  9990,2 50840  53.2183  50.5203 0002626  25.9188 334.1935 15.08820664 54271,6917.939,95.439,541.621,537.988,0.0
50840.0,STARLINK-3295,PAYLOAD,2022-12-22 04:05:37,15.08935975,0.0003221,53.2181,47.249,17.2971,342.8131,-0.0014662,-0.00023611,0.0,0 STARLINK-3295,1 50840U 22001AP  22356.17057205 -.00023611  00000-0 -14662-2 0  9993,2 50840  53.2181  47.2490 0003221  17.2971 342.8131 15.08935975 54384,6917.587,95.431,541.68,537.224,0.0
50840.0,STARLINK-3295,PAYLOAD,2022-12-22 10:27:12,15.08842438,0.0002714,53.2182,46.0599,24.9171,335.1952,-3.4365e-05,-8.35e-06,0.0,0 STARLINK-3295,1 50840U 22001AP  22356.43556062 -.00000835  00000-0 -34365-4 0  9994,2 50840  53.2182  46.0599 0002714  24.9171 335.1952 15.08842438 54427,6917.873000000001,95.437,541.615,537.86,0.0
50840.0,STARLINK-3295,PAYLOAD,2022-12-22 15:13:22,15.08836678,0.000273,53.2182,45.168,25.9544,334.1585,-2.8429e-05,-7.41e-06,0.0,0 STARLINK-3295,1 50840U 22001AP  22356.63428437 -.00000741  00000-0 -28429-4 0  9990,2 50840  53.2182  45.1680 0002730  25.9544 334.1585 15.08836678 53161,6917.891,95.438,541.644,537.867,0.0
50840.0,STARLINK-3295,PAYLOAD,2022-12-23 03:56:27,15.08824511,0.0002745,53.2184,42.7891,26.1093,334.0037,0.00016385,2.319e-05,0.0,0 STARLINK-3295,1 50840U 22001AP  22357.16420782  .00002319  00000-0  16385-3 0  9992,2 50840  53.2184  42.7891 0002745  26.1093 334.0037 15.08824511 54534,6917.928000000001,95.439,541.692,537.894,0.0
50840.0,STARLINK-3295,PAYLOAD,2022-12-23 10:18:00,15.08818705,0.0002752,53.2184,41.5997,26.4473,333.6659,0.00010226,1.339e-05,0.0,0 STARLINK-3295,1 50840U 22001AP  22357.42917673  .00001339  00000-0  10226-3 0  9990,2 50840  53.2184  41.5997 0002752  26.4473 333.6659 15.08818705 54578,6917.945,95.439,541.714,537.9069999999998,0.0
50840.0,STARLINK-3295,PAYLOAD,2022-12-23 23:01:05,15.08837046,0.0002753,53.2188,39.2206,26.4903,333.6229,0.00010654,1.407e-05,0.0,0 STARLINK-3295,1 50840U 22001AP  22357.95908905  .00001407  00000-0  10654-3 0  9997,2 50840  53.2188  39.2206 0002753  26.4903 333.6229 15.08837046 54659,6917.889,95.438,541.659,537.85,0.0
50840.0,STARLINK-3295,PAYLOAD,2022-12-24 03:47:14,15.08846237,0.000273,53.2186,38.3286,27.1178,332.9956,9.9416e-05,1.294e-05,0.0,0 STARLINK-3295,1 50840U 22001AP  22358.15780443  .00001294  00000-0  99416-4 0  9993,2 50840  53.2186  38.3286 0002730  27.1178 332.9956 15.08846237 54686,6917.861,95.437,541.615,537.8380000000002,0.0
50840.0,STARLINK-3295,PAYLOAD,2022-12-24 19:41:05,15.08846203,0.0002794,53.2189,35.3546,27.6211,332.4929,3.0981e-05,2.05e-06,0.0,0 STARLINK-3295,1 50840U 22001AP  22358.82020499  .00000205  00000-0  30981-4 0  9998,2 50840  53.2189  35.3546 0002794  27.6211 332.4929 15.08846203 53494,6917.861,95.437,541.659,537.794,0.0
50840.0,STARLINK-3295,PAYLOAD,2022-12-25 02:02:38,15.0884059,0.0002764,53.2188,34.1654,27.2444,332.8693,4.5748e-05,4.4e-06,0.0,0 STARLINK-3295,1 50840U 22001AP  22359.08516790  .00000440  00000-0  45748-4 0  9999,2 50840  53.2188  34.1654 0002764  27.2444 332.8693 15.08840590 54824,6917.879,95.438,541.656,537.831,0.0
50840.0,STARLINK-3295,PAYLOAD,2022-12-25 11:34:57,15.08834568,0.0002681,53.2182,32.3825,30.8586,329.2563,-1.3831e-05,-5.09e-06,0.0,0 STARLINK-3295,1 50840U 22001AP  22359.48261395 -.00000509  00000-0 -13831-4 0  9997,2 50840  53.2182  32.3825 0002681  30.8586 329.2563 15.08834568 54883,6917.897,95.438,541.617,537.9069999999998,0.0
50840.0,STARLINK-3295,PAYLOAD,2022-12-25 19:31:54,15.08829347,0.0002767,53.2185,30.8953,25.6849,334.42800000000005,-6.583899999999999e-05,-1.336e-05,0.0,0 STARLINK-3295,1 50840U 22001AP  22359.81382059 -.00001336  00000-0 -65839-4 0  9999,2 50840  53.2185  30.8953 0002767  25.6849 334.4280 15.08829347 54939,6917.913000000001,95.438,541.692,537.864,0.0
50840.0,STARLINK-3295,PAYLOAD,2022-12-26 01:53:28,15.08808628,0.0002617,53.2184,29.7054,24.709,335.4027,-0.00030434,-5.125e-05,0.0,0 STARLINK-3295,1 50840U 22001AP  22360.07880406 -.00005125  00000-0 -30434-3 0  9990,2 50840  53.2184  29.7054 0002617  24.7090 335.4027 15.08808628 54972,6917.976,95.44,541.6519999999998,538.031,0.0
50840.0,STARLINK-3295,PAYLOAD,2022-12-26 11:25:47,15.08816347,0.0003133,53.2174,27.9215,36.1554,323.965,-0.00017638,-3.093e-05,0.0,0 STARLINK-3295,1 50840U 22001AP  22360.47624261 -.00003093  00000-0 -17638-3 0  9992,2 50840  53.2174  27.9215 0003133  36.1554 323.9650 15.08816347 53741,6917.953,95.439,541.985,537.65,0.0
50840.0,STARLINK-3295,PAYLOAD,2022-12-27 01:44:13,15.08842875,0.0002721,53.2194,25.2451,26.4055,333.7075,0.00010313,1.353e-05,0.0,0 STARLINK-3295,1 50840U 22001AP  22361.07237687  .00001353  00000-0  10313-3 0  9999,2 50840  53.2194  25.2451 0002721  26.4055 333.7075 15.08842875 55125,6917.871999999999,95.437,541.619,537.854,0.0
50840.0,STARLINK-3295,PAYLOAD,2022-12-27 11:16:31,15.08853008,0.0002546,53.2189,23.4617,26.5795,333.5327,0.0002146,3.13e-05,0.0,0 STARLINK-3295,1 50840U 22001AP  22361.46980512  .00003130  00000-0  21460-3 0  9994,2 50840  53.2189  23.4617 0002546  26.5795 333.5327 15.08853008 55184,6917.840999999999,95.437,541.467,537.944,0.0
50840.0,STARLINK-3295,PAYLOAD,2022-12-27 22:24:13,15.0884889,0.0002778,53.2184,21.3794,29.4927,330.6221,0.00023338,3.429e-05,0.0,0 STARLINK-3295,1 50840U 22001AP  22361.93348596  .00003429  00000-0  23338-3 0  9993,2 50840  53.2184  21.3794 0002778  29.4927 330.6221 15.08848890 55250,6917.853,95.437,541.64,537.7959999999998,0.0
50840.0,STARLINK-3295,PAYLOAD,2022-12-28 11:07:19,15.08800264,0.0002976999999999,53.2186,19.0012,26.7741,333.3404,0.00076249,0.00011855,0.0,0 STARLINK-3295,1 50840U 22001AP  22362.46342299  .00011855  00000-0  76249-3 0  9997,2 50840  53.2186  19.0012 0002977  26.7741 333.3404 15.08800264 54046,6918.002,95.44,541.9259999999998,537.807,0.0
50840.0,STARLINK-3295,PAYLOAD,2022-12-28 22:15:01,15.08843902,0.0002822,53.2173,16.9184,27.9248,332.1896,-2.0893e-05,-6.21e-06,0.0,0 STARLINK-3295,1 50840U 22001AP  22362.92709553 -.00000621  00000-0 -20893-4 0  9994,2 50840  53.2173  16.9184 0002822  27.9248 332.1896 15.08843902 55401,6917.868,95.437,541.686,537.781,0.0
50840.0,STARLINK-3295,PAYLOAD,2022-12-29 10:58:07,15.08833875,0.00027,53.2183,14.5417,30.3675,329.7473,-0.00018908,-3.296e-05,0.0,0 STARLINK-3295,1 50840U 22001AP  22363.45702696 -.00003296  00000-0 -18908-3 0  9998,2 50840  53.2183  14.5417 0002700  30.3675 329.7473 15.08833875 55481,6917.899,95.438,541.632,537.896,0.0
